SWARM A                 
1 39452U 13067B   26160.47664567  .00010036  00000+0  17349-3 0  9996
2 39452  87.3329  59.1054 0002993  92.3947 267.7656 15.50798144705058
SWARM C                 
1 39453U 13067C   26160.47653050  .00009991  00000+0  17269-3 0  9991
2 39453  87.3329  57.6866 0002969  92.5362 267.6239 15.50800666705014
BRITE-CA1 (TORONTO)     
1 40020U 14033L   26160.36004236  .00000618  00000+0  10079-3 0  9990
2 40020  97.9729 289.4327 0077422 302.5173  56.8569 14.72665836641063
OCO 2                   
1 40059U 14035A   26160.46447480  .00000381  00000+0  94641-4 0  9992
2 40059  98.2016 101.8753 0001487  86.8439 273.2929 14.57104969634923
BRITE-PL2 (HEWELIUSZ)   
1 40119U 14049B   26160.27228884  .00001922  00000+0  18289-3 0  9993
2 40119  97.9089 272.2120 0015166 132.0173 228.2341 14.94568700640265
MMS 1                   
1 40482U 15011A   26160.58337963 -.00000009  00000+0  00000+0 0  9993
2 40482  72.1001 348.8939 8325280 167.3102 242.7615  0.28317420  1389
MMS 2                   
1 40483U 15011B   26160.58337963 -.00000009  00000+0  00000+0 0  9994
2 40483  72.1003 348.8961 8326064 167.3159 242.7498  0.28317433  1383
MMS 3                   
1 40484U 15011C   26160.58337963 -.00000009  00000+0  00000+0 0  9995
2 40484  72.1034 348.9006 8325250 167.3104 242.7462  0.28317390  1388
MMS 4                   
1 40485U 15011D   26160.58337963 -.00000009  00000+0  00000+0 0  9996
2 40485  72.0995 348.8963 8324855 167.3182 242.7345  0.28317373  1382
ASTROSAT                
1 40930U 15052A   26160.28770678  .00001533  00000+0  10479-3 0  9994
2 40930   5.9953 212.2248 0008530 281.7410  78.1761 14.82494301578656
DAMPE                   
1 41173U 15078A   26160.52030005  .00001729  00000+0  60642-4 0  9997
2 41173  97.4562 165.9499 0013732 100.6973 259.5815 15.30767632583377
PISAT                   
1 41784U 16059B   26160.51503088  .00000870  00000+0  15581-3 0  9997
2 41784  97.8178 161.2976 0027837 228.0857 131.7975 14.68970440518614
HXMT (HUIYAN)           
1 42758U 17034A   26160.50391527  .00004001  00000+0  20027-3 0  9996
2 42758  43.0133 225.8227 0030188  96.4694 263.9593 15.18424330496498
FLYING LAPTOP           
1 42831U 17042G   26160.51976484  .00003742  00000+0  29577-3 0  9999
2 42831  97.4659 316.3501 0019178 146.7458 213.4976 15.01096612485303
ZHANGHENG 1-01 (CSES-1) 
1 43194U 18015C   26160.50640108  .00005813  00000+0  26666-3 0  9990
2 43194  97.6866 326.0127 0017128 295.3302  64.6158 15.20713054463471
SALSAT                  
1 46495U 20068K   26160.49232389  .00007245  00000+0  25454-3 0  9999
2 46495  97.8855 163.0891 0008742 339.5990  20.4898 15.29688082314186
IXPE                    
1 49954U 21121A   26160.50003471  .00009725  00000+0  52270-3 0  9994
2 49954   0.2313  15.6147 0007620 323.2165 201.8472 15.10180192  5314
SMILE                   
1 69123U 26109A   26144.65318427 -.00001976  00000+0 -42379-3 0  9994
2 69123  70.0007 229.2745 0009123 259.5159 100.4951 14.57062785   802
